     2.10           GLONASS NAV DATA                        RINEX VERSION / TYPE
Assistant 1.0                           20241012 134923 LCL PGM / RUN BY / DATE 
    18                                                      LEAP SECONDS        
                                                            END OF HEADER       
17 24 10 10 14 15  0.0 0.129543244839D-03 0.363797880709D-11 0.504000000000D+05 
   -0.936965136719D+04 0.479738235474D+00 0.000000000000D+00 0.000000000000D+00 
    0.206211572266D+05-0.155070304871D+01 0.000000000000D+00 0.400000000000D+01 
    0.117968671875D+05 0.309047794342D+01-0.931322574615D-09 0.000000000000D+00 
 4 24 10 10 14 15  0.0 0.258656218648D-03 0.181898940355D-11 0.504000000000D+05 
    0.792180859375D+04-0.167900848389D+01 0.186264514923D-08 0.000000000000D+00 
    0.172381791992D+05-0.163208961487D+01 0.279396772385D-08 0.600000000000D+01 
   -0.170170986328D+05-0.243355178833D+01 0.000000000000D+00 0.000000000000D+00 
18 24 10 10 14 15  0.0 0.166202895343D-03 0.909494701773D-12 0.504000000000D+05 
   -0.296506738281D+04 0.980615615845D-01 0.931322574615D-09 0.000000000000D+00 
    0.249270351563D+05 0.637924194336D+00 0.931322574615D-09-0.300000000000D+01 
   -0.439504492188D+04 0.353851413727D+01-0.931322574615D-09 0.000000000000D+00 
 5 24 10 10 14 15  0.0 0.138952396810D-03 0.000000000000D+00 0.504000000000D+05 
    0.186116606445D+05-0.593843460083D-01 0.931322574615D-09 0.000000000000D+00 
    0.173215366211D+05-0.318570137024D+00 0.186264514923D-08 0.100000000000D+01 
   -0.184660888672D+04-0.358044433594D+01-0.279396772385D-08 0.000000000000D+00 
 9 24 10 10 14 15  0.0 0.213921070099D-03 0.272848410532D-11 0.504000000000D+05 
    0.239056889648D+05-0.905917167664D+00 0.000000000000D+00 0.000000000000D+00 
   -0.588733837891D+04 0.247004508972D+00 0.000000000000D+00-0.200000000000D+01 
    0.685460839844D+04 0.337342739105D+01-0.186264514923D-08 0.000000000000D+00 
 7 24 10 10 14 15  0.0 0.926582142711D-04 0.909494701773D-12 0.504000000000D+05 
    0.656350585938D+04 0.240402698517D+01-0.186264514923D-08 0.000000000000D+00 
   -0.862196337891D+04 0.204788494110D+01-0.186264514923D-08 0.500000000000D+01 
    0.231265922852D+05 0.759992599487D-01-0.931322574615D-09 0.000000000000D+00 
16 24 10 10 14 45  0.0 0.298330560327D-04 0.000000000000D+00 0.522000000000D+05 
    0.911879931641D+04-0.276135540009D+01-0.931322574615D-09 0.000000000000D+00 
    0.728574365234D+04 0.141948604584D+01-0.931322574615D-09-0.100000000000D+01 
    0.226947524414D+05 0.650794029236D+00-0.186264514923D-08 0.000000000000D+00 
 6 24 10 10 14 45  0.0-0.184025615454D-03-0.181898940355D-11 0.522000000000D+05 
    0.214384985352D+05 0.153534317017D+01 0.000000000000D+00 0.000000000000D+00 
    0.595951904297D+04 0.757607460022D+00 0.000000000000D+00-0.400000000000D+01 
    0.124317519531D+05-0.300867176056D+01-0.279396772385D-08 0.000000000000D+00 
24 24 10 10 14 45  0.0-0.754594802856D-04-0.909494701773D-12 0.522000000000D+05 
   -0.108353388672D+05 0.159340858459D+00-0.186264514923D-08 0.000000000000D+00 
   -0.158571044922D+04-0.314748668671D+01-0.186264514923D-08 0.200000000000D+01 
    0.230592792969D+05-0.144099235535D+00 0.000000000000D+00 0.000000000000D+00 
15 24 10 10 14 45  0.0 0.750273466110D-04 0.000000000000D+00 0.522000000000D+05 
   -0.869404296875D+04-0.224923896790D+01-0.931322574615D-09 0.000000000000D+00 
    0.147933691406D+05 0.127004051208D+01-0.931322574615D-09 0.000000000000D+00 
    0.188904956055D+05-0.203242969513D+01-0.931322574615D-09 0.000000000000D+00 
17 24 10 10 14 45  0.0 0.129549764097D-03 0.363797880709D-11 0.522000000000D+05 
   -0.865956933594D+04 0.272801399231D+00-0.931322574615D-09 0.000000000000D+00 
    0.171382768555D+05-0.229060840607D+01-0.931322574615D-09 0.400000000000D+01 
    0.168335820313D+05 0.246963977814D+01-0.931322574615D-09 0.000000000000D+00 
18 24 10 10 14 45  0.0 0.166205689311D-03 0.909494701773D-12 0.522000000000D+05 
   -0.262051757813D+04 0.243207931519D+00 0.000000000000D+00 0.000000000000D+00 
    0.252705229492D+05-0.264474868774D+00 0.000000000000D+00-0.300000000000D+01 
    0.206214355469D+04 0.358942222595D+01-0.931322574615D-09 0.000000000000D+00 
 5 24 10 10 14 45  0.0 0.138953328133D-03 0.000000000000D+00 0.522000000000D+05 
    0.178282231445D+05-0.826669692993D+00 0.186264514923D-08 0.000000000000D+00 
    0.163028027344D+05-0.773933410645D+00 0.186264514923D-08 0.100000000000D+01 
   -0.813643603516D+04-0.336277770996D+01-0.186264514923D-08 0.000000000000D+00 
 9 24 10 10 14 45  0.0 0.213926658034D-03 0.272848410532D-11 0.522000000000D+05 
    0.216713896484D+05-0.154177188873D+01-0.931322574615D-09 0.000000000000D+00 
   -0.500405957031D+04 0.757394790649D+00 0.000000000000D+00-0.200000000000D+01 
    0.125852182617D+05 0.295279693604D+01-0.186264514923D-08 0.000000000000D+00 
 7 24 10 10 14 45  0.0 0.926600769162D-04 0.909494701773D-12 0.522000000000D+05 
    0.111012949219D+05 0.259358406067D+01-0.931322574615D-09 0.000000000000D+00 
   -0.529926660156D+04 0.161713981628D+01-0.931322574615D-09 0.500000000000D+01 
    0.223707148438D+05-0.910616874695D+00-0.186264514923D-08 0.000000000000D+00 
19 24 10 10 14 45  0.0-0.294368714094D-03-0.909494701773D-12 0.532800000000D+05 
    0.341548242188D+04 0.411787033081D-01 0.186264514923D-08 0.000000000000D+00 
    0.220301762695D+05 0.171396827698D+01 0.186264514923D-08 0.300000000000D+01 
   -0.124042836914D+05 0.305258464813D+01-0.931322574615D-09 0.000000000000D+00 
16 24 10 10 15 15  0.0 0.298339873552D-04 0.000000000000D+00 0.540000000000D+05 
    0.429296679688D+04-0.255556583405D+01-0.931322574615D-09 0.000000000000D+00 
    0.102343041992D+05 0.183107757568D+01-0.931322574615D-09-0.100000000000D+01 
    0.229749809570D+05-0.341547966003D+00-0.186264514923D-08 0.000000000000D+00 
 6 24 10 10 15 15  0.0-0.184029340744D-03-0.181898940355D-11 0.540000000000D+05 
    0.236590961914D+05 0.895709037781D+00 0.000000000000D+00 0.000000000000D+00 
    0.681431201172D+04 0.215430259705D+00 0.931322574615D-09-0.400000000000D+01 
    0.660456738281D+04-0.342382431030D+01-0.279396772385D-08 0.000000000000D+00 
19 24 10 10 15 15  0.0-0.294371508062D-03-0.909494701773D-12 0.540000000000D+05 
    0.372651171875D+04 0.266229629517D+00 0.186264514923D-08 0.000000000000D+00 
    0.243889575195D+05 0.883800506592D+00 0.931322574615D-09 0.300000000000D+01 
   -0.650126660156D+04 0.346374130249D+01-0.931322574615D-09 0.000000000000D+00 
15 24 10 10 15 15  0.0 0.750254839659D-04 0.000000000000D+00 0.540000000000D+05 
   -0.121394316406D+05-0.156105136871D+01-0.931322574615D-09 0.000000000000D+00 
    0.170882983398D+05 0.123672866821D+01-0.931322574615D-09 0.000000000000D+00 
    0.145500039063D+05-0.275913047791D+01 0.000000000000D+00 0.000000000000D+00 
17 24 10 10 15 15  0.0 0.129556283355D-03 0.363797880709D-11 0.540000000000D+05 
   -0.849810253906D+04-0.117228507996D+00-0.186264514923D-08 0.000000000000D+00 
    0.125057675781D+05-0.281361293793D+01-0.931322574615D-09 0.400000000000D+01 
    0.205729614258D+05 0.165827655792D+01-0.931322574615D-09 0.000000000000D+00 
18 24 10 10 15 15  0.0 0.166208483279D-03 0.909494701773D-12 0.540000000000D+05 
   -0.224141992188D+04 0.136766433716D+00 0.000000000000D+00 0.000000000000D+00 
    0.239819833984D+05-0.115516090393D+01 0.000000000000D+00-0.300000000000D+01 
    0.835957226563D+04 0.336222648621D+01-0.931322574615D-09 0.000000000000D+00 
 5 24 10 10 15 15  0.0 0.138953328133D-03 0.000000000000D+00 0.540000000000D+05 
    0.156136718750D+05-0.163025379181D+01 0.279396772385D-08 0.000000000000D+00 
    0.146890004883D+05-0.974790573120D+00 0.186264514923D-08 0.100000000000D+01 
   -0.137959057617D+05-0.288462638855D+01-0.931322574615D-09 0.000000000000D+00 
 9 24 10 10 15 15  0.0 0.213931314647D-03 0.272848410532D-11 0.540000000000D+05 
    0.184997138672D+05-0.193828487396D+01-0.931322574615D-09 0.000000000000D+00 
   -0.310587451172D+04 0.135851764679D+01 0.000000000000D+00-0.200000000000D+01 
    0.173480014648D+05 0.230495643616D+01-0.186264514923D-08 0.000000000000D+00 
 7 24 10 10 15 15  0.0 0.926619395614D-04 0.909494701773D-12 0.540000000000D+05 
    0.157282031250D+05 0.249762725830D+01-0.931322574615D-09 0.000000000000D+00 
   -0.286641992188D+04 0.107663536072D+01 0.000000000000D+00 0.500000000000D+01 
    0.198898798828D+05-0.182821750641D+01-0.186264514923D-08 0.000000000000D+00 
 8 24 10 10 15 15  0.0-0.641029328108D-05 0.000000000000D+00 0.557400000000D+05 
   -0.942333984375D+01 0.278093338013D+01-0.186264514923D-08 0.000000000000D+00 
   -0.117475288086D+05 0.135655593872D+01-0.931322574615D-09 0.600000000000D+01 
    0.227003271484D+05 0.700900077820D+00-0.931322574615D-09 0.000000000000D+00 
16 24 10 10 15 45  0.0 0.298339873552D-04 0.000000000000D+00 0.558000000000D+05 
    0.618544921875D+02-0.211249160767D+01-0.931322574615D-09 0.000000000000D+00 
    0.137589189453D+05 0.204585838318D+01 0.000000000000D+00-0.100000000000D+01 
    0.214806582031D+05-0.130815219879D+01-0.186264514923D-08 0.000000000000D+00 
 6 24 10 10 15 45  0.0-0.184029340744D-03-0.909494701773D-12 0.558000000000D+05 
    0.245582529297D+05 0.824136734009D-01 0.931322574615D-09 0.000000000000D+00 
    0.684306103516D+04-0.147930145264D+00 0.931322574615D-09-0.400000000000D+01 
    0.265621093750D+03-0.357361507416D+01-0.279396772385D-08 0.000000000000D+00 
19 24 10 10 15 45  0.0-0.294373370707D-03-0.909494701773D-12 0.558000000000D+05 
    0.422544921875D+04 0.245384216309D+00 0.931322574615D-09 0.000000000000D+00 
    0.251634262695D+05-0.266847610474D-01 0.000000000000D+00 0.300000000000D+01 
   -0.958564453125D+02 0.360719203949D+01-0.931322574615D-09 0.000000000000D+00 
